#dP2024  9  7  0  0  0.00000000      96 __u+U IGS20 EXT  IAC
## 2330 518400.00000000   900.00000000 60560 0.0000000000000
+   53   G02G03G04G05G06G07G08G09G10G11G12G13G14G15G16G17G18
+        G19G20G21G22G23G24G25G26G27G28G29G30G31G32R01R02R03
+        R04R05R07R08R09R11R12R14R15R16R17R18R19R20R21R22R24
+        R25R26  0  0  0  0  0  0  0  0  0  0  0  0  0  0  0
+          0  0  0  0  0  0  0  0  0  0  0  0  0  0  0  0  0
++         6  8  7  7  8  7  7  7  7  8  7  7  6  7  7  8  7
++         7  7  8  7  7  7  8  7  7  8  8  7  8  7  8  8  7
++         8  8  9  8  8  8  8  7  8  8  8  8 10  9  8  6  8
++         7  9  0  0  0  0  0  0  0  0  0  0  0  0  0  0  0
++         0  0  0  0  0  0  0  0  0  0  0  0  0  0  0  0  0
%c M  cc GPS ccc cccc cccc cccc cccc ccccc ccccc ccccc ccccc
%c cc cc ccc ccc cccc cccc cccc cccc ccccc ccccc ccccc ccccc
%f  0.0000000  0.000000000  0.00000000000  0.000000000000000
%f  0.0000000  0.000000000  0.00000000000  0.000000000000000
%i    0    0    0    0      0      0      0      0         0
%i    0    0    0    0      0      0      0      0         0
/* IAC                                ULTRA-RAPID PREDICTION
/* S/V CLOCKS ARE ALIGNED TO GNSS TIME                      
/* G:C1WC2W R:C1PC2P E:C1XC5X C:C2IC6I J:C1CC2S             
/* PCV:IGS20_2317 OL/AL:FES2004  NONE     YN ORB:CoN CLK:CoN
*  2024 09 07  5  0  0.00000000
PG02  14328.641364 -19979.900065  10079.716355   -363.267013
PG03  16881.543750 -12541.199214 -16321.066379    528.788653
PG04   7126.172428 -15024.775926 -20664.492625    438.951518
PG05 -26056.821429   5050.212111   1552.580498   -185.765559
PG06  -8999.253443 -13364.768768 -21027.170804     47.820531
PG07   4318.977372 -24684.821900   8587.636796    -40.991764
PG08  15652.166478  -4263.549468  20985.554276    343.770761
PG09  -3314.573598 -21692.414198 -15011.990612    346.013855
PG10  15555.598400  10990.508727  18865.473390   -117.314073
PG11 -16689.841720   1574.439466 -20556.847938   -731.654197
PG12 -20213.879432  10438.711172 -13946.751083   -536.191953
PG13 -17558.189719  -5512.202104  19013.997936    675.129167
PG14 -11506.013827 -13490.875427  19884.437265    489.929874
PG15 -14791.142068   6590.811393  20561.515834    201.397915
PG16  26723.747284   1042.359249  -2136.503728   -187.755093
PG17 -13478.059757 -22764.176886   1218.912286    634.079747
PG18  -4869.468538  24460.830059   8822.380748   -651.782702
PG19 -17207.679667 -19012.277783  -7870.455344    534.801538
PG20 -24748.015173    279.239756  -9361.268879    370.891732
PG21  15950.292838 -14888.480864  14770.207045    102.221050
PG22 -18428.984563 -10900.183277  15933.820932    -59.338227
PG23   1504.477778  14723.425802  22077.953162    314.604609
PG24 -14589.414450  18975.517715  10617.958707   -486.801891
PG25  -8283.753264  15546.142822 -20144.729567    499.573840
PG26  22223.970451   6156.268072 -13657.110549     84.409285
PG27  19596.377208   7373.001734  16295.347878    -33.732828
PG28   8543.517737  15542.531491 -19782.239352   -401.899241
PG29  -1049.118564  20435.909989 -16908.590886   -579.461160
PG30  -4063.196806 -20508.064657  16377.198508   -325.975181
PG31  15432.015790   3211.846515 -21642.168949   -225.004490
PG32  15845.932437  21453.933146     27.546129   -599.478934
PR01  17319.620723    182.852335 -18727.689528     96.977462
PR02   3125.648268 -10712.521599 -22893.445891    -24.530969
PR03 -13220.346953 -16532.009732 -14144.882530    107.084744
PR04 -21649.391263 -13320.341592   2032.492911    253.519794
PR05 -18633.024408  -2974.485765  17154.461723    137.293760
PR07  13682.138935  16636.671769  13741.645564     90.391707
PR08  21815.431100  13076.673493  -2145.696098     -6.380768
PR09 -15262.713788  15792.310291 -13024.303782    207.746306
PR11  15412.064872   2729.790482 -20121.340651     12.544208
PR12  23223.059882  -9658.265602  -4257.715065     44.558527
PR14   -764.105532 -11966.454818  22527.878507     26.905141
PR15 -16730.009836  -1790.998767  19198.982385     76.132132
PR16 -23200.184962   9645.646972   4529.667053     28.911276
PR17  -2467.719890 -23934.188677  -8538.798853    119.797981
PR18  -8526.134545 -12104.407781 -20743.830451    160.829675
PR19 -10660.707217   3571.953876 -22893.402633   -290.469648
PR20  -6872.620423  22460.239042  -9974.482036   -118.755036
PR21   1931.678074  24144.178342   7940.558165   -132.363997
PR22   8971.583408  11178.917059  21127.975183     52.782704
PR24   5835.735582 -22991.474984   9436.783616    -70.990340
PR25   1865.256272  23834.303171   8861.678165   -100.943525
PR26  21580.656855  13565.022142   -653.121836     19.469329
*  2024 09 07  5 15  0.00000000
PG02  14162.925498 -18731.905141  12553.776386   -363.259906
PG03  18603.994433 -12632.827719 -14211.059489    528.801014
PG04   8591.556685 -13108.514000 -21410.456021    438.958014
PG05 -26129.059900   4843.297665  -1322.472354   -185.766697
PG06  -8011.161705 -15500.436686 -19926.644386     47.797486
PG07   4884.595689 -25294.186181   5890.253258    -40.987441
PG08  17120.699295  -2399.846059  20160.956777    343.782795
PG09  -2028.741245 -20397.667330 -16948.280089    346.028152
PG10  13403.688732  11349.563203  20239.931273   -117.324858
PG11 -15741.398822   -634.678208 -21345.183643   -731.658297
PG12 -21648.933458  10333.603013 -11628.443921   -536.194448
PG13 -18504.395679  -7409.922486  17446.070945    675.131032
PG14  -9211.977118 -13840.726008  20799.569153    489.937622
PG15 -16488.126814   4865.215654  19771.128029    201.401833
PG16  26372.799403   1275.320258  -4929.302409   -187.745837
PG17 -13129.288158 -22689.752961   4076.611901    634.070010
PG18  -5407.842807  25160.297165   6099.197699   -651.784911
PG19 -17420.263891 -19725.397636  -5156.506552    534.806039
PG20 -23657.372885   -337.945717 -11846.419284    370.891390
PG21  15648.298463 -13121.625555  16784.745551    102.220441
PG22 -16569.898755 -11156.381106  17767.736967    -59.341703
PG23   -968.434906  15106.557390  21828.380164    314.612244
PG24 -14481.187970  17516.055805  12961.297894   -486.801843
PG25 -10456.862655  15753.093104 -18890.599989    499.573930
PG26  20663.924866   6731.459389 -15673.651796     84.401836
PG27  20571.335151   8874.521996  14293.896066    -33.733012
PG28   7670.350435  17546.956771 -18415.447004   -401.911958
PG29  -2282.216034  18822.939272 -18591.576514   -579.459069
PG30  -3181.736527 -22043.104018  14420.796900   -325.968830
PG31  14464.045119   5450.012264 -21829.996587   -225.004111
PG32  15575.011812  21487.907002   2868.899411   -599.475834
PR01  19265.539334   1178.734927 -16677.352193     96.978734
PR02   5541.881793  -9202.646351 -23097.358290    -24.531131
PR03 -11652.775115 -15444.653083 -16546.950890    107.085403
PR04 -21785.146026 -13194.280748  -1195.571752    253.521427
PR05 -20376.127095  -3911.482574  14823.531760    137.294311
PR07  12177.203551  15571.334920  16189.138103     90.392456
PR08  21964.242823  12972.687553   1070.528351     -6.380712
PR09 -16456.427924  16599.174345 -10292.005246    207.748291
PR11  13143.509237   3940.979267 -21484.764781     12.543287
PR12  22531.059293  -9420.454812  -7357.808167     44.558984
PR14   1589.143981 -13338.528027  21696.459489     26.905217
PR15 -14548.703343  -2930.500782  20772.346983     76.131829
PR16 -22474.366584   9410.946612   7628.270189     28.911552
PR17  -2627.862340 -24803.863064  -5461.680235    119.800984
PR18  -8529.867445 -14572.244258 -19087.871244    160.831367
PR19 -10432.972318    727.903955 -23263.659183   -290.470873
PR20  -6575.957252  21069.833153 -12802.087699   -118.755424
PR21   2094.009695  24939.931598   4826.249365   -132.366806
PR22   8881.478919  13687.415040  19635.621892     52.774733
PR24   5663.123527 -21659.651560  12270.067773    -70.991709
PR25   1943.314273  24746.904644   5816.003066   -100.943167
PR26  21565.002693  13365.171872   2565.524451     19.478116
EOF
